STARLINK-31071          
1 58602U 23200P   26068.25331882 -.00001687  00000+0 -51840-4 0  9997
2 58602  43.0003  11.1431 0000428 287.7790  72.3015 15.27562352125428
LIME                    
1 62648U 25009AR  26068.73906781  .00013254  00000+0  47723-3 0  9995
2 62648  97.3985 151.4831 0001635  35.9029 324.2320 15.28703313 63766
